IRIDIUM 112             
1 41925U 17003J   25009.24173040  .00000564  00000+0  19427-3 0  9999
2 41925  86.3978 307.2463 0002189  77.1738 282.9702 14.34213480418173
IRIDIUM 111             
1 41926U 17003K   25009.29882686  .00000582  00000+0  20078-3 0  9992
2 41926  86.3980 307.2815 0002008  86.9596 273.1829 14.34217099418169
IRIDIUM 113             
1 42803U 17039A   25009.20901775  .00000112  00000+0  32827-4 0  9993
2 42803  86.4000 181.1344 0001816  78.8751 281.2649 14.34217388396080
IRIDIUM 123             
1 42804U 17039B   25009.32026841  .00000171  00000+0  54031-4 0  9995
2 42804  86.3971 212.5228 0001855  94.9980 265.1427 14.34217219394865
IRIDIUM 120             
1 42805U 17039C   25009.20267587  .00000088  00000+0  24297-4 0  9995
2 42805  86.3992 180.9878 0002116 100.5574 259.5860 14.34217552396075
IRIDIUM 115             
1 42806U 17039D   25009.32408605  .00000290  00000+0  80201-4 0  9999
2 42806  86.4528 180.9924 0001578 101.5249 258.6129 14.43279838398700
IRIDIUM 118             
1 42807U 17039E   25009.28221358  .00000070  00000+0  17920-4 0  9997
2 42807  86.3969 212.5390 0002002  87.8249 272.3176 14.34216294394851
IRIDIUM 117             
1 42808U 17039F   25009.30122775  .00000214  00000+0  69336-4 0  9992
2 42808  86.3968 212.4937 0001756  96.2952 263.8443 14.34220578394882
